{
  "type": "FeatureCollection",
  "features": [
    {
      "type": "Feature",
      "properties": {
        "norad_id": 46430,
        "name": "COSMOS 2251 DEB",
        "group": "cosmos-2251-debris",
        "lat": 26.608136568827845,
        "lon": 3.32047155999158,
        "alt_km": 747.8248678759865,
        "timestamp": "2025-12-13T10:41:26.164725+00:00",
        "meta_object_name": "COSMOS 2251 DEB",
        "meta_object_id": "1993-036BWU",
        "meta_epoch": "2025-12-12T18:01:09.115680",
        "meta_mean_motion": 14.51304268,
        "meta_eccentricity": 0.01036453,
        "meta_inclination": 73.9144,
        "meta_ra_of_asc_node": 356.326,
        "meta_arg_of_pericenter": 276.5668,
        "meta_mean_anomaly": 82.3702,
        "meta_ephemeris_type": 0,
        "meta_classification_type": "U",
        "meta_norad_cat_id": 46430,
        "meta_element_set_no": 999,
        "meta_rev_at_epoch": 79683,
        "meta_bstar": 0.0031599798,
        "meta_mean_motion_dot": 0.00013483,
        "meta_mean_motion_ddot": 0,
        "tle_line1": "1 46430U 93036BWU 25346.75079995  .00013483  00000+0  31600-2 0  9999",
        "tle_line2": "2 46430  73.9144 356.3260 0103645 276.5668  82.3702 14.51304268796830"
      },
      "geometry": {
        "type": "Point",
        "coordinates": [
          3.32047155999158,
          26.608136568827845
        ]
      }
    },
    {
      "type": "Feature",
      "properties": {
        "norad_id": 46432,
        "name": "COSMOS 2251 DEB",
        "group": "cosmos-2251-debris",
        "lat": -40.45718458635602,
        "lon": -55.5318433731941,
        "alt_km": 773.8412697389031,
        "timestamp": "2025-12-13T10:41:26.164736+00:00",
        "meta_object_name": "COSMOS 2251 DEB",
        "meta_object_id": "1993-036BWW",
        "meta_epoch": "2025-12-10T15:12:54.844704",
        "meta_mean_motion": 13.36630678,
        "meta_eccentricity": 0.047382,
        "meta_inclination": 73.872,
        "meta_ra_of_asc_node": 114.6117,
        "meta_arg_of_pericenter": 232.4487,
        "meta_mean_anomaly": 146.831,
        "meta_ephemeris_type": 0,
        "meta_classification_type": "U",
        "meta_norad_cat_id": 46432,
        "meta_element_set_no": 999,
        "meta_rev_at_epoch": 66938,
        "meta_bstar": 0.0019144,
        "meta_mean_motion_dot": 1.863e-05,
        "meta_mean_motion_ddot": 0,
        "tle_line1": "1 46432U 93036BWW 25344.63396811  .00001863  00000+0  19144-2 0  9993",
        "tle_line2": "2 46432  73.8720 114.6117 0473820 232.4487 146.8310 13.36630678669381"
      },
      "geometry": {
        "type": "Point",
        "coordinates": [
          -55.5318433731941,
          -40.45718458635602
        ]
      }
    },
    {
      "type": "Feature",
      "properties": {
        "norad_id": 47045,
        "name": "COSMOS 2251 DEB",
        "group": "cosmos-2251-debris",
        "lat": 13.402424200405202,
        "lon": -36.038553098239895,
        "alt_km": 774.3943202325172,
        "timestamp": "2025-12-13T10:41:26.164746+00:00",
        "meta_object_name": "COSMOS 2251 DEB",
        "meta_object_id": "1993-036BWZ",
        "meta_epoch": "2025-12-08T18:12:30.966336",
        "meta_mean_motion": 14.3889696,
        "meta_eccentricity": 0.00302024,
        "meta_inclination": 74.0568,
        "meta_ra_of_asc_node": 156.4972,
        "meta_arg_of_pericenter": 298.2595,
        "meta_mean_anomaly": 80.2379,
        "meta_ephemeris_type": 0,
        "meta_classification_type": "U",
        "meta_norad_cat_id": 47045,
        "meta_element_set_no": 999,
        "meta_rev_at_epoch": 7748,
        "meta_bstar": 0.00016053941,
        "meta_mean_motion_dot": 4.71e-06,
        "meta_mean_motion_ddot": 0,
        "tle_line1": "1 47045U 93036BWZ 25342.75869174  .00000471  00000+0  16054-3 0  9994",
        "tle_line2": "2 47045  74.0568 156.4972 0030202 298.2595  80.2379 14.38896960 77482"
      },
      "geometry": {
        "type": "Point",
        "coordinates": [
          -36.038553098239895,
          13.402424200405202
        ]
      }
    },
    {
      "type": "Feature",
      "properties": {
        "norad_id": 47048,
        "name": "COSMOS 2251 DEB",
        "group": "cosmos-2251-debris",
        "lat": 51.083087352128324,
        "lon": 117.00272643184255,
        "alt_km": 624.1381399546626,
        "timestamp": "2025-12-13T10:41:26.164756+00:00",
        "meta_object_name": "COSMOS 2251 DEB",
        "meta_object_id": "1993-036BXC",
        "meta_epoch": "2025-12-12T16:45:08.160768",
        "meta_mean_motion": 14.52302543,
        "meta_eccentricity": 0.01328752,
        "meta_inclination": 73.9781,
        "meta_ra_of_asc_node": 319.2649,
        "meta_arg_of_pericenter": 147.2155,
        "meta_mean_anomaly": 32.9715,
        "meta_ephemeris_type": 0,
        "meta_classification_type": "U",
        "meta_norad_cat_id": 47048,
        "meta_element_set_no": 999,
        "meta_rev_at_epoch": 59689,
        "meta_bstar": 0.0015366021,
        "meta_mean_motion_dot": 6.991e-05,
        "meta_mean_motion_ddot": 0,
        "tle_line1": "1 47048U 93036BXC 25346.69801112  .00006991  00000+0  15366-2 0  9999",
        "tle_line2": "2 47048  73.9781 319.2649 0132875 147.2155  32.9715 14.52302543596898"
      },
      "geometry": {
        "type": "Point",
        "coordinates": [
          117.00272643184255,
          51.083087352128324
        ]
      }
    },
    {
      "type": "Feature",
      "properties": {
        "norad_id": 47051,
        "name": "COSMOS 2251 DEB",
        "group": "cosmos-2251-debris",
        "lat": -47.82719652266244,
        "lon": 20.778097076391084,
        "alt_km": 904.8024316614174,
        "timestamp": "2025-12-13T10:41:26.164766+00:00",
        "meta_object_name": "COSMOS 2251 DEB",
        "meta_object_id": "1993-036BXF",
        "meta_epoch": "2025-12-07T08:40:13.029888",
        "meta_mean_motion": 13.67092269,
        "meta_eccentricity": 0.03407698,
        "meta_inclination": 74.1016,
        "meta_ra_of_asc_node": 192.3794,
        "meta_arg_of_pericenter": 307.1463,
        "meta_mean_anomaly": 234.2047,
        "meta_ephemeris_type": 0,
        "meta_classification_type": "U",
        "meta_norad_cat_id": 47051,
        "meta_element_set_no": 999,
        "meta_rev_at_epoch": 59864,
        "meta_bstar": 0.0022022876,
        "meta_mean_motion_dot": 2.731e-05,
        "meta_mean_motion_ddot": 0,
        "tle_line1": "1 47051U 93036BXF 25341.36126192  .00002731  00000+0  22023-2 0  9996",
        "tle_line2": "2 47051  74.1016 192.3794 0340769 307.1463 234.2047 13.67092269598645"
      },
      "geometry": {
        "type": "Point",
        "coordinates": [
          20.778097076391084,
          -47.82719652266244
        ]
      }
    },
    {
      "type": "Feature",
      "properties": {
        "norad_id": 47052,
        "name": "COSMOS 2251 DEB",
        "group": "cosmos-2251-debris",
        "lat": 64.569345780063,
        "lon": 122.05836216136008,
        "alt_km": 743.9918367211212,
        "timestamp": "2025-12-13T10:41:26.164799+00:00",
        "meta_object_name": "COSMOS 2251 DEB",
        "meta_object_id": "1993-036BXG",
        "meta_epoch": "2025-12-10T17:46:39.199872",
        "meta_mean_motion": 14.35475987,
        "meta_eccentricity": 0.00579259,
        "meta_inclination": 74.0489,
        "meta_ra_of_asc_node": 343.9911,
        "meta_arg_of_pericenter": 58.7929,
        "meta_mean_anomaly": 119.1053,
        "meta_ephemeris_type": 0,
        "meta_classification_type": "U",
        "meta_norad_cat_id": 47052,
        "meta_element_set_no": 999,
        "meta_rev_at_epoch": 61760,
        "meta_bstar": 0.00039499211,
        "meta_mean_motion_dot": 1.132e-05,
        "meta_mean_motion_ddot": 0,
        "tle_line1": "1 47052U 93036BXG 25344.74073148  .00001132  00000+0  39499-3 0  9994",
        "tle_line2": "2 47052  74.0489 343.9911 0057925  58.7929 119.1053 14.35475987617603"
      },
      "geometry": {
        "type": "Point",
        "coordinates": [
          122.05836216136008,
          64.569345780063
        ]
      }
    },
    {
      "type": "Feature",
      "properties": {
        "norad_id": 47053,
        "name": "COSMOS 2251 DEB",
        "group": "cosmos-2251-debris",
        "lat": 45.10288285234903,
        "lon": -90.41572588863217,
        "alt_km": 767.2135764337036,
        "timestamp": "2025-12-13T10:41:26.164811+00:00",
        "meta_object_name": "COSMOS 2251 DEB",
        "meta_object_id": "1993-036BXH",
        "meta_epoch": "2025-12-11T02:15:18.253728",
        "meta_mean_motion": 13.59660001,
        "meta_eccentricity": 0.03765467,
        "meta_inclination": 74.0597,
        "meta_ra_of_asc_node": 256.721,
        "meta_arg_of_pericenter": 70.6385,
        "meta_mean_anomaly": 352.548,
        "meta_ephemeris_type": 0,
        "meta_classification_type": "U",
        "meta_norad_cat_id": 47053,
        "meta_element_set_no": 999,
        "meta_rev_at_epoch": 28866,
        "meta_bstar": 0.0019220925,
        "meta_mean_motion_dot": 2.258e-05,
        "meta_mean_motion_ddot": 0,
        "tle_line1": "1 47053U 93036BXH 25345.09396127  .00002258  00000+0  19221-2 0  9999",
        "tle_line2": "2 47053  74.0597 256.7210 0376546  70.6385 352.5480 13.59660001288664"
      },
      "geometry": {
        "type": "Point",
        "coordinates": [
          -90.41572588863217,
          45.10288285234903
        ]
      }
    }
  ]
}